STARLINK-32081          
1 60348U 24136V   26068.33672497 -.00000089  00000+0  91154-5 0  9992
2 60348  53.1602  77.0795 0001305  80.2800 279.8348 15.30190436 89619
NUSAT-49 (KLARA DAN VO*)
1 60500U 24149AJ  26068.79810190  .00012912  00000+0  43568-3 0  9991
2 60500  97.3807 150.7380 0001132 286.7761  73.3356 15.30828857 86935
